M2 PATHFINDER           
1 45727U 20037E   26068.47969609  .00004468  00000+0  32592-3 0  9994
2 45727  97.8158 258.5983 0012405 127.8041 232.4310 15.04175941310501
STARLINK-31026          
1 58508U 23191A   26068.78870758 -.00001591  00000+0 -10274-3 0  9998
2 58508  43.0033 106.5212 0001095 273.0980  86.9737 15.02546182125442
